STARLETTE               
1 07646U 75010A   23095.32369235 -.00000152  00000+0 -72322-5 0  9998
2 07646  49.8251  38.2007 0205738 161.7325 199.1098 13.82317409432851
LAGEOS 1                
1 08820U 76039A   23095.28216816  .00000025  00000+0  00000+0 0  9991
2 08820 109.8199 138.9819 0045057 193.1723 176.0522  6.38664775838490
AJISAI (EGS)            
1 16908U 86061A   23095.59428253 -.00000067  00000+0  21449-3 0  9998
2 16908  50.0073 140.7419 0011331  86.1010  36.1954 12.44499930334870
COSMOS 1989 (ETALON 1)  
1 19751U 89001C   23094.41828715  .00000086  00000+0  00000+0 0  9997
2 19751  64.3850 112.3718 0023992 214.5350 316.0878  2.13156342266430
COSMOS 2024 (ETALON 2)  
1 20026U 89039C   23095.46909159 -.00000053  00000+0  00000+0 0  9998
2 20026  65.4881 350.4816 0018672 218.4514 357.1307  2.13204399263583
LAGEOS 2                
1 22195U 92070B   23094.84118425 -.00000009  00000+0  00000+0 0  9996
2 22195  52.6528 285.6674 0138748  36.1924 224.6673  6.47293917719716
STELLA                  
1 22824U 93061B   23095.50478425 -.00000005  00000+0  16736-4 0  9993
2 22824  98.9375 128.4233 0006980  37.9762  72.7434 14.27402315538047
LARES                   
1 38077U 12006A   23095.53747982 -.00000040  00000+0 -66953-5 0  9997
2 38077  69.4921 128.4072 0006244  61.1339 299.0320 12.54931490510550
